[{"OBJECT_NAME":"STARLINK-31585","OBJECT_ID":"2024-080H","EPOCH":"2026-03-09T06:24:08.620416","MEAN_MOTION":15.27590267,"ECCENTRICITY":0.00037179,"INCLINATION":43.0022,"RA_OF_ASC_NODE":36.3479,"ARG_OF_PERICENTER":254.4766,"MEAN_ANOMALY":105.5675,"EPHEMERIS_TYPE":0,"CLASSIFICATION_TYPE":"U","NORAD_CAT_ID":59608,"ELEMENT_SET_NO":999,"REV_AT_EPOCH":10452,"BSTAR":-0.00027197075,"MEAN_MOTION_DOT":-7.743e-5,"MEAN_MOTION_DDOT":0},{"OBJECT_NAME":"OBJECT F","OBJECT_ID":"2021-022F","EPOCH":"2026-03-09T23:37:37.165152","MEAN_MOTION":15.31317672,"ECCENTRICITY":0.00120882,"INCLINATION":97.3982,"RA_OF_ASC_NODE":329.8375,"ARG_OF_PERICENTER":85.9268,"MEAN_ANOMALY":274.3355,"EPHEMERIS_TYPE":0,"CLASSIFICATION_TYPE":"U","NORAD_CAT_ID":47937,"ELEMENT_SET_NO":999,"REV_AT_EPOCH":27452,"BSTAR":0.00038690553,"MEAN_MOTION_DOT":0.00011656,"MEAN_MOTION_DDOT":0}]
